{
  "type": "FeatureCollection",
  "features": [
    {
      "type": "Feature",
      "properties": {
        "norad_id": 67018,
        "name": "STARLINK-36106",
        "group": "last-30-days",
        "lat": 29.79403471473787,
        "lon": 107.03292256875595,
        "alt_km": 300.86758447267493,
        "timestamp": "2025-12-21T05:44:50.293965+00:00",
        "meta_object_name": "STARLINK-36106",
        "meta_object_id": "2025-293R",
        "meta_epoch": "2025-12-20T22:00:01.999584",
        "meta_mean_motion": 15.91066402,
        "meta_eccentricity": 0.00039359,
        "meta_inclination": 69.9933,
        "meta_ra_of_asc_node": 300.0103,
        "meta_arg_of_pericenter": 268.2485,
        "meta_mean_anomaly": 191.9946,
        "meta_ephemeris_type": 0,
        "meta_classification_type": "U",
        "meta_norad_cat_id": 67018,
        "meta_element_set_no": 999,
        "meta_rev_at_epoch": 154,
        "meta_bstar": -0.0042473397,
        "meta_mean_motion_dot": -0.01340552,
        "meta_mean_motion_ddot": 0.00051440255,
        "tle_line1": "1 67018U 25293R   25354.91668981 -.01340552  51440-3 -42473-2 0  9991",
        "tle_line2": "2 67018  69.9933 300.0103 0003935 268.2485 191.9946 15.91066402  1548"
      },
      "geometry": {
        "type": "Point",
        "coordinates": [
          107.03292256875595,
          29.79403471473787
        ]
      }
    },
    {
      "type": "Feature",
      "properties": {
        "norad_id": 67019,
        "name": "STARLINK-35688",
        "group": "last-30-days",
        "lat": 27.64330644528741,
        "lon": 108.07010351558164,
        "alt_km": 301.0705873535853,
        "timestamp": "2025-12-21T05:44:50.293975+00:00",
        "meta_object_name": "STARLINK-35688",
        "meta_object_id": "2025-293S",
        "meta_epoch": "2025-12-20T22:00:01.999584",
        "meta_mean_motion": 15.9110231,
        "meta_eccentricity": 0.00039483,
        "meta_inclination": 69.9933,
        "meta_ra_of_asc_node": 300.0074,
        "meta_arg_of_pericenter": 268.8272,
        "meta_mean_anomaly": 193.7118,
        "meta_ephemeris_type": 0,
        "meta_classification_type": "U",
        "meta_norad_cat_id": 67019,
        "meta_element_set_no": 999,
        "meta_rev_at_epoch": 162,
        "meta_bstar": -0.004269472,
        "meta_mean_motion_dot": -0.01349918,
        "meta_mean_motion_ddot": 0.00052123727,
        "tle_line1": "1 67019U 25293S   25354.91668981 -.01349918  52124-3 -42695-2 0  9993",
        "tle_line2": "2 67019  69.9933 300.0074 0003948 268.8272 193.7118 15.91102310  1629"
      },
      "geometry": {
        "type": "Point",
        "coordinates": [
          108.07010351558164,
          27.64330644528741
        ]
      }
    },
    {
      "type": "Feature",
      "properties": {
        "norad_id": 67020,
        "name": "STARLINK-36172",
        "group": "last-30-days",
        "lat": 24.912868260043684,
        "lon": 109.32518098865071,
        "alt_km": 301.3413573904463,
        "timestamp": "2025-12-21T05:44:50.293985+00:00",
        "meta_object_name": "STARLINK-36172",
        "meta_object_id": "2025-293T",
        "meta_epoch": "2025-12-20T22:00:01.999584",
        "meta_mean_motion": 15.91140191,
        "meta_eccentricity": 0.00039212,
        "meta_inclination": 69.9931,
        "meta_ra_of_asc_node": 300.0042,
        "meta_arg_of_pericenter": 269.9221,
        "meta_mean_anomaly": 195.5268,
        "meta_ephemeris_type": 0,
        "meta_classification_type": "U",
        "meta_norad_cat_id": 67020,
        "meta_element_set_no": 999,
        "meta_rev_at_epoch": 154,
        "meta_bstar": -0.0042833813,
        "meta_mean_motion_dot": -0.01356852,
        "meta_mean_motion_ddot": 0.00052638376,
        "tle_line1": "1 67020U 25293T   25354.91668981 -.01356852  52638-3 -42834-2 0  9995",
        "tle_line2": "2 67020  69.9931 300.0042 0003921 269.9221 195.5268 15.91140191  1547"
      },
      "geometry": {
        "type": "Point",
        "coordinates": [
          109.32518098865071,
          24.912868260043684
        ]
      }
    },
    {
      "type": "Feature",
      "properties": {
        "norad_id": 67021,
        "name": "STARLINK-36184",
        "group": "last-30-days",
        "lat": 22.413803529388986,
        "lon": 110.42161340175144,
        "alt_km": 301.4592550158595,
        "timestamp": "2025-12-21T05:44:50.293995+00:00",
        "meta_object_name": "STARLINK-36184",
        "meta_object_id": "2025-293U",
        "meta_epoch": "2025-12-20T22:00:01.999584",
        "meta_mean_motion": 15.91174295,
        "meta_eccentricity": 0.00039319,
        "meta_inclination": 69.9933,
        "meta_ra_of_asc_node": 300.0007,
        "meta_arg_of_pericenter": 267.8183,
        "meta_mean_anomaly": 200.2854,
        "meta_ephemeris_type": 0,
        "meta_classification_type": "U",
        "meta_norad_cat_id": 67021,
        "meta_element_set_no": 999,
        "meta_rev_at_epoch": 154,
        "meta_bstar": -0.0042856699,
        "meta_mean_motion_dot": -0.01359917,
        "meta_mean_motion_ddot": 0.00052875647,
        "tle_line1": "1 67021U 25293U   25354.91668981 -.01359917  52876-3 -42857-2 0  9990",
        "tle_line2": "2 67021  69.9933 300.0007 0003931 267.8183 200.2854 15.91174295  1543"
      },
      "geometry": {
        "type": "Point",
        "coordinates": [
          110.42161340175144,
          22.413803529388986
        ]
      }
    },
    {
      "type": "Feature",
      "properties": {
        "norad_id": 67022,
        "name": "STARLINK-36209",
        "group": "last-30-days",
        "lat": 19.485447506287052,
        "lon": 111.6539999625831,
        "alt_km": 301.74440699384195,
        "timestamp": "2025-12-21T05:44:50.294007+00:00",
        "meta_object_name": "STARLINK-36209",
        "meta_object_id": "2025-293V",
        "meta_epoch": "2025-12-20T22:00:01.999584",
        "meta_mean_motion": 15.91211228,
        "meta_eccentricity": 0.00039259,
        "meta_inclination": 69.9931,
        "meta_ra_of_asc_node": 299.9973,
        "meta_arg_of_pericenter": 268.7905,
        "meta_mean_anomaly": 202.4171,
        "meta_ephemeris_type": 0,
        "meta_classification_type": "U",
        "meta_norad_cat_id": 67022,
        "meta_element_set_no": 999,
        "meta_rev_at_epoch": 154,
        "meta_bstar": -0.0042932303,
        "meta_mean_motion_dot": -0.01364835,
        "meta_mean_motion_ddot": 0.00053248317,
        "tle_line1": "1 67022U 25293V   25354.91668981 -.01364835  53248-3 -42932-2 0  9994",
        "tle_line2": "2 67022  69.9931 299.9973 0003925 268.7905 202.4171 15.91211228  1549"
      },
      "geometry": {
        "type": "Point",
        "coordinates": [
          111.6539999625831,
          19.485447506287052
        ]
      }
    },
    {
      "type": "Feature",
      "properties": {
        "norad_id": 67023,
        "name": "STARLINK-36191",
        "group": "last-30-days",
        "lat": 17.073345282390186,
        "lon": 112.63223308500955,
        "alt_km": 301.979716295511,
        "timestamp": "2025-12-21T05:44:50.294020+00:00",
        "meta_object_name": "STARLINK-36191",
        "meta_object_id": "2025-293W",
        "meta_epoch": "2025-12-20T22:00:01.999584",
        "meta_mean_motion": 15.91252025,
        "meta_eccentricity": 0.00039817,
        "meta_inclination": 69.9929,
        "meta_ra_of_asc_node": 299.9935,
        "meta_arg_of_pericenter": 269.7827,
        "meta_mean_anomaly": 203.9668,
        "meta_ephemeris_type": 0,
        "meta_classification_type": "U",
        "meta_norad_cat_id": 67023,
        "meta_element_set_no": 999,
        "meta_rev_at_epoch": 143,
        "meta_bstar": -0.0043229496,
        "meta_mean_motion_dot": -0.01377051,
        "meta_mean_motion_ddot": 0.00054152828,
        "tle_line1": "1 67023U 25293W   25354.91668981 -.01377051  54153-3 -43229-2 0  9995",
        "tle_line2": "2 67023  69.9929 299.9935 0003981 269.7827 203.9668 15.91252025  1436"
      },
      "geometry": {
        "type": "Point",
        "coordinates": [
          112.63223308500955,
          17.073345282390186
        ]
      }
    },
    {
      "type": "Feature",
      "properties": {
        "norad_id": 67024,
        "name": "STARLINK-36192",
        "group": "last-30-days",
        "lat": 14.337006127166408,
        "lon": 113.7111548618065,
        "alt_km": 302.12279046211916,
        "timestamp": "2025-12-21T05:44:50.294031+00:00",
        "meta_object_name": "STARLINK-36192",
        "meta_object_id": "2025-293X",
        "meta_epoch": "2025-12-20T22:00:01.999584",
        "meta_mean_motion": 15.91291467,
        "meta_eccentricity": 0.00038967,
        "meta_inclination": 69.9932,
        "meta_ra_of_asc_node": 299.9905,
        "meta_arg_of_pericenter": 268.747,
        "meta_mean_anomaly": 207.8853,
        "meta_ephemeris_type": 0,
        "meta_classification_type": "U",
        "meta_norad_cat_id": 67024,
        "meta_element_set_no": 999,
        "meta_rev_at_epoch": 154,
        "meta_bstar": -0.0043419147,
        "meta_mean_motion_dot": -0.01385749,
        "meta_mean_motion_ddot": 0.00054806922,
        "tle_line1": "1 67024U 25293X   25354.91668981 -.01385749  54807-3 -43419-2 0  9996",
        "tle_line2": "2 67024  69.9932 299.9905 0003896 268.7470 207.8853 15.91291467  1540"
      },
      "geometry": {
        "type": "Point",
        "coordinates": [
          113.7111548618065,
          14.337006127166408
        ]
      }
    }
  ]
}